1 08820U 76039A   03351.16798542 -.00000003  00000-0  10000-3 0  9951
2 08820 109.8346 244.2480 0044301 262.1937  97.3753  6.38664754388740
